{
  "type": "FeatureCollection",
  "features": [
    {
      "type": "Feature",
      "properties": {
        "norad_id": 50032,
        "name": "COSMOS 1408 DEB",
        "group": "cosmos-1408-debris",
        "lat": 67.90729046060186,
        "lon": -136.40913377709666,
        "alt_km": 426.7853191613967,
        "timestamp": "2025-12-08T23:34:04.239832+00:00",
        "meta_object_name": "COSMOS 1408 DEB",
        "meta_object_id": "1982-092RU",
        "meta_epoch": "2025-12-08T15:19:11.985024",
        "meta_mean_motion": 15.45630719,
        "meta_eccentricity": 0.00149145,
        "meta_inclination": 82.5643,
        "meta_ra_of_asc_node": 62.7122,
        "meta_arg_of_pericenter": 224.4599,
        "meta_mean_anomaly": 135.5454,
        "meta_ephemeris_type": 0,
        "meta_classification_type": "U",
        "meta_norad_cat_id": 50032,
        "meta_element_set_no": 999,
        "meta_rev_at_epoch": 22540,
        "meta_bstar": 0.0001566825,
        "meta_mean_motion_dot": 7.615e-05,
        "meta_mean_motion_ddot": 0,
        "tle_line1": "1 50032U 82092RU  25342.63833316  .00007615  00000+0  15668-3 0  9997",
        "tle_line2": "2 50032  82.5643  62.7122 0014914 224.4599 135.5454 15.45630719225405"
      },
      "geometry": {
        "type": "Point",
        "coordinates": [
          -136.40913377709666,
          67.90729046060186
        ]
      }
    },
    {
      "type": "Feature",
      "properties": {
        "norad_id": 50058,
        "name": "COSMOS 1408 DEB",
        "group": "cosmos-1408-debris",
        "lat": 64.87100269237585,
        "lon": 89.33066611939888,
        "alt_km": 362.8313229435771,
        "timestamp": "2025-12-08T23:34:04.239853+00:00",
        "meta_object_name": "COSMOS 1408 DEB",
        "meta_object_id": "1982-092SW",
        "meta_epoch": "2025-12-08T07:55:44.645376",
        "meta_mean_motion": 15.63709561,
        "meta_eccentricity": 0.0016354,
        "meta_inclination": 82.6131,
        "meta_ra_of_asc_node": 73.955,
        "meta_arg_of_pericenter": 114.3465,
        "meta_mean_anomaly": 245.9504,
        "meta_ephemeris_type": 0,
        "meta_classification_type": "U",
        "meta_norad_cat_id": 50058,
        "meta_element_set_no": 999,
        "meta_rev_at_epoch": 22735,
        "meta_bstar": 0.0004087218,
        "meta_mean_motion_dot": 0.00038485,
        "meta_mean_motion_ddot": 0,
        "tle_line1": "1 50058U 82092SW  25342.33037784  .00038485  00000+0  40872-3 0  9991",
        "tle_line2": "2 50058  82.6131  73.9550 0016354 114.3465 245.9504 15.63709561227354"
      },
      "geometry": {
        "type": "Point",
        "coordinates": [
          89.33066611939888,
          64.87100269237585
        ]
      }
    },
    {
      "type": "Feature",
      "properties": {
        "norad_id": 50404,
        "name": "COSMOS 1408 DEB",
        "group": "cosmos-1408-debris",
        "lat": 42.31738478969913,
        "lon": 31.711576190045157,
        "alt_km": 490.3279395065274,
        "timestamp": "2025-12-08T23:34:04.239867+00:00",
        "meta_object_name": "COSMOS 1408 DEB",
        "meta_object_id": "1982-092ADS",
        "meta_epoch": "2025-12-08T02:18:52.795296",
        "meta_mean_motion": 15.12826412,
        "meta_eccentricity": 0.01738853,
        "meta_inclination": 82.2031,
        "meta_ra_of_asc_node": 219.7838,
        "meta_arg_of_pericenter": 214.9126,
        "meta_mean_anomaly": 144.0605,
        "meta_ephemeris_type": 0,
        "meta_classification_type": "U",
        "meta_norad_cat_id": 50404,
        "meta_element_set_no": 999,
        "meta_rev_at_epoch": 21123,
        "meta_bstar": 0.0031525673,
        "meta_mean_motion_dot": 0.00081169,
        "meta_mean_motion_ddot": 0,
        "tle_line1": "1 50404U 82092ADS 25342.09644439  .00081169  00000+0  31526-2 0  9992",
        "tle_line2": "2 50404  82.2031 219.7838 0173885 214.9126 144.0605 15.12826412211237"
      },
      "geometry": {
        "type": "Point",
        "coordinates": [
          31.711576190045157,
          42.31738478969913
        ]
      }
    },
    {
      "type": "Feature",
      "properties": {
        "norad_id": 50621,
        "name": "COSMOS 1408 DEB",
        "group": "cosmos-1408-debris",
        "lat": -2.7801021370070185,
        "lon": -101.54435671178126,
        "alt_km": 382.9802020737807,
        "timestamp": "2025-12-08T23:34:04.239879+00:00",
        "meta_object_name": "COSMOS 1408 DEB",
        "meta_object_id": "1982-092ALR",
        "meta_epoch": "2025-12-08T07:21:18.073152",
        "meta_mean_motion": 15.56312621,
        "meta_eccentricity": 0.00288415,
        "meta_inclination": 82.5714,
        "meta_ra_of_asc_node": 78.7954,
        "meta_arg_of_pericenter": 168.5442,
        "meta_mean_anomaly": 191.6476,
        "meta_ephemeris_type": 0,
        "meta_classification_type": "U",
        "meta_norad_cat_id": 50621,
        "meta_element_set_no": 999,
        "meta_rev_at_epoch": 22181,
        "meta_bstar": 0.00044459454,
        "meta_mean_motion_dot": 0.00031977,
        "meta_mean_motion_ddot": 0,
        "tle_line1": "1 50621U 82092ALR 25342.30645918  .00031977  00000+0  44459-3 0  9992",
        "tle_line2": "2 50621  82.5714  78.7954 0028841 168.5442 191.6476 15.56312621221816"
      },
      "geometry": {
        "type": "Point",
        "coordinates": [
          -101.54435671178126,
          -2.7801021370070185
        ]
      }
    }
  ]
}